#dP2019  3 11  0  0  0.00000000      96 __u+U ITR00 FIT  IAC
## 2044  86400.00000000   900.00000000 58553 0.0000000000000
+  100   C01C02C03C04C05C06C07C08C09C10C11C12C13C14C16C23C25
+        E01E02E03E04E05E07E08E09E11E12E13E14E15E18E19E21E24
+        E25E26E27E30E31E33E36G01G02G03G04G05G06G07G08G09G10
+        G11G12G13G14G15G16G17G18G19G20G21G22G23G24G25G26G27
+        G28G29G30G31G32J01J02J03J07R01R02R03R04R05R07R08R09
+        R10R11R13R14R15R16R17R18R19R20R21R22R23R24R26  0  0
++        11 11 11 12 12  8  9  9  8  8  7  8  8  7  8 19 18
++         5  5  5  5  5  5  5  5  5  5  5  5  5  5  5  5  5
++         5  5  5  5  5  5  4  3  3  3  5  3  3  3  3  3  3
++         3  3  3  3  3  3  3  3  3  3  3  3  3  3  3  3  4
++         3  3  3  3  3  0 10 10 15  5  5  5  5  5  5  5  6
++         5  5  5  5  5  6  5  5  5  5  5  6  5  6  8  0  0
%c M  cc GPS ccc cccc cccc cccc cccc ccccc ccccc ccccc ccccc
%c cc cc ccc ccc cccc cccc cccc cccc ccccc ccccc ccccc ccccc
%f  0.0000000  0.000000000  0.00000000000  0.000000000000000
%f  0.0000000  0.000000000  0.00000000000  0.000000000000000
%i    0    0    0    0      0      0      0      0         0
%i    0    0    0    0      0      0      0      0         0
/* INFORMATION & ANALYSIS CENTER (IAC) OF MCC   (RAPID DATA)
/* S/V CLOCKS ARE ALIGNED TO GPS & GLONASS TIME RESPECTIVELY
/* USING THE BROADCAST EPHEMERIS                            
/* PCV:IGS14_2038 OL/AL:FES2004  NONE     YN ORB:CoN CLK:CoN
*  2019 03 11 15 15  0.00000000
PC01 -32307.719136  27074.781450    433.450829    317.718163
PC02   4462.664648  41950.769196    746.359796   -370.731383
PC03 -14878.568201  39464.216272    497.561545    -76.911243
PC04 -39592.935654  14458.674966    435.341583      8.897005
PC05  21884.127949  36037.869687    646.960633   -107.381124
PC06 -24549.216130  29288.872967 -17881.168416    516.716284
PC07 -10268.477113  37150.014751 -16403.897583    103.308529
PC08 -10897.616767  19113.794333  36053.319140    126.902400
PC09 -11602.835874  28991.646314 -28294.493504    597.124800
PC10  -1402.453495  41510.684737  -5806.733682   -564.770955
PC11   1574.079473  15314.903419  23334.493891    -45.714722
PC12 -24988.968770   8363.519033   9134.821596    483.992184
PC13   3556.734658  26492.824234  32727.330751   -587.425576
PC14 -10188.251888  25929.536031  -1962.473889    772.753156
PC16 -21366.790383  29903.463580 -20827.973644   -348.770952
PC23  20629.890470  12509.080915  14020.324179   -441.417458
PC25  14777.567428  23524.572802  -2733.967626 999999.999999
PE01 -14680.896659   7947.454689 -24448.245614   -559.876871
PE02  14664.180806  -7980.861698  24435.590661     51.028928
PE03  24431.203352 -14255.174947  -8740.911057   -142.709389
PE04 -15229.895254  23491.195794  -9612.279489   -238.169110
PE05  19377.502141   3414.808787 -22111.998304     93.478244
PE07  -3016.168654 -19009.992457  22495.997698   -147.140360
PE08  15003.514630 -23593.211645   9736.052253   6390.672525
PE09   3103.958882  18864.435461 -22589.270980   6503.411293
PE11  14021.898985  17533.563861  19282.152350   5716.340417
PE12  -8346.424411  14522.673602  24417.698954   6349.352850
PE13 -13988.256887 -17419.822853 -19410.470099    384.070418
PE14  20269.029334   4102.103521  12670.377406   6432.893639
PE15   7844.082449 -14625.373132 -24495.100673    917.512857
PE18 -20524.810069 -12000.563901 -21514.415422   -587.115334
PE19 -24513.780826  12827.359334  10533.579752     -7.814415
PE21 -16711.835527 -14436.363202 -19716.085750   -523.550585
PE24   8918.314850  27982.616090   3769.802971   6190.864993
PE25  16700.104280  14492.164509  19679.506477   1868.698738
PE26 -27589.251711 -10305.214186  -2969.494395   4810.570093
PE27  -8817.446512 -28054.614405  -3346.670269    512.680691
PE30   4139.410139 -25395.474842  14607.747561   5041.406112
PE31  -4231.730939  25192.161407 -14952.815512    885.820097
PE33 -25157.779199   3269.519937  15273.267290    847.953279
PE36  27685.058901  10034.460055   2964.569656    737.784880
PG01 -22483.453507 -13706.782821   4428.811106   -178.741188
PG02   9296.398358  19810.082762  15777.169248   -160.828439
PG03 -13241.887953  -9925.135110  20754.501412    186.077569
PG04 -24435.438926  10309.932574  -1484.130080    131.413273
PG05   3258.026516  24951.463527  -8288.202183      1.168414
PG06  -2716.354590  15967.619405  21089.154786    257.573349
PG07 -21161.792047  -2481.382056 -15895.598231     16.955431
PG08 -13655.836906  -9558.446831 -20681.602576   -135.766955
PG09 -25127.815790   7489.580007   4234.117746    446.790452
PG10  11258.892693 -20597.128625 -12179.624324     99.565959
PG11 -23749.089554 -10143.784753  -6181.116654   -646.831812
PG12  11391.333568  12287.618696  20447.258380    261.044057
PG13   4821.627158  14332.247872 -21952.097638    -72.090065
PG14  11348.775590 -16580.924687  17586.191461    -88.731179
PG15  16578.734790   7856.676562 -19586.231044   -324.050545
PG16  -1705.615978 -24218.814099 -10411.520718    -24.676946
PG17 -19347.255983  14633.291180  11116.246436     21.862189
PG18 -18817.534450 -18096.031936  -5757.924967     33.830748
PG19 -12702.656709  15684.945594  17021.590586   -343.484702
PG20  14225.230897 -12260.489035 -18837.334788    522.994107
PG21  19006.732122  -2301.908122 -17554.084990   -234.543205
PG22 -11496.541579 -17356.694873  16761.359139   -662.112049
PG23 -22742.478023  -1430.244774  14294.009875   -194.411559
PG24  22016.057039  15175.185007    132.727563    -63.233860
PG25  15072.401559  -1147.019864  21614.250278   -731.681041
PG26   3425.886539 -26228.107562    762.637936    146.390914
PG27  -2394.251590 -14948.047745 -21888.331388    -83.995064
PG28 -12812.616984  19395.575281 -12322.132949    766.129819
PG29  24912.779181  -2220.090532   8902.509798    251.797399
PG30 -13894.956911   8338.348612 -21052.404244    -66.644575
PG31   2372.430112 -16588.770611  20501.333186     52.907952
PG32  16541.347580 -16535.066222  12528.099907   -186.322886
PJ01      0.000000      0.000000      0.000000 999999.999999
PJ02 -19668.638765  21547.436221 -26081.722970      0.167233
PJ03 -29733.008690  28441.525881  14287.984506     -0.279575
PJ07 -25379.854388  33676.995931    -37.924493     67.381403
PR01    192.133066  16435.159409 -19499.055535     40.661138
PR02  13430.982204  -1280.173772 -21598.203217    358.263077
PR03  17078.875935 -16249.622026  -9647.607394     -7.775461
PR04  10419.199986 -21728.248972   8357.623621    298.213201
PR05  -1573.128056 -14722.734648  20774.885416     23.830557
PR07 -17098.313249  16542.476300   9286.481374    -59.637280
PR08 -10957.053875  21749.586997  -7549.558000     18.691870
PR09 -14412.497104  -9665.462238 -18713.055078     58.541672
PR10  -8917.056686   6254.619861 -23087.025670     44.637243
PR11   2032.865245  20993.859379 -14307.568876    -59.345292
PR13  14504.221842  10916.197095  17897.569609    -21.092622
PR14   9015.221537  -6575.340003  22944.275805     36.793788
PR15  -1561.319995 -20530.442367  15067.502574    100.555127
PR16 -11698.342193 -22537.259153  -1646.194313     10.808164
PR17  22069.308010  -3563.303528 -12297.256066    211.227681
PR18   7390.235326  -9523.224493 -22450.229628     35.914575
PR19 -10998.547329 -10547.389196 -20451.208955    -60.638355
PR20 -24453.318246  -5242.425726  -5149.065958   -371.422149
PR21 -21691.810382   3801.411675  12862.465144    -35.930470
PR22  -4832.116190   9948.723511  23007.105783     -8.858036
PR23  15883.846724   9535.042945  17528.443865    214.661589
PR24  24913.451680   4097.043499   3534.815418   -178.079888
PR26 -23709.590252  -5706.923443  -7430.246088      0.620500
EOF
